{
    "links": {
        "self": "http://www.neowsapp.com/rest/v1/neo/54048887?api_key=iIulBulltgU6a56xZRHN4H3l9WmuAYTsLGpBGhQ2"
    },
    "id": "54048887",
    "neo_reference_id": "54048887",
    "name": "(2020 OH1)",
    "designation": "2020 OH1",
    "nasa_jpl_url": "http://ssd.jpl.nasa.gov/sbdb.cgi?sstr=54048887",
    "absolute_magnitude_h": 23.453,
    "estimated_diameter": {
        "kilometers": {
            "estimated_diameter_min": 0.0541944704,
            "estimated_diameter_max": 0.1211825198
        },
        "meters": {
            "estimated_diameter_min": 54.1944703977,
            "estimated_diameter_max": 121.1825198138
        },
        "miles": {
            "estimated_diameter_min": 0.0336748723,
            "estimated_diameter_max": 0.0752993035
        },
        "feet": {
            "estimated_diameter_min": 177.8033862594,
            "estimated_diameter_max": 397.5804583057
        }
    },
    "is_potentially_hazardous_asteroid": false,
    "close_approach_data": [
        {
            "close_approach_date": "1927-02-25",
            "close_approach_date_full": "1927-Feb-25 19:14",
            "epoch_date_close_approach": -1352177160000,
            "relative_velocity": {
                "kilometers_per_second": "6.3610356112",
                "kilometers_per_hour": "22899.7282003926",
                "miles_per_hour": "14229.0005587384"
            },
            "miss_distance": {
                "astronomical": "0.0942886582",
                "lunar": "36.6782880398",
                "kilometers": "14105382.431878034",
                "miles": "8764678.2196395092"
            },
            "orbiting_body": "Mars"
        },
        {
            "close_approach_date": "1958-06-23",
            "close_approach_date_full": "1958-Jun-23 09:36",
            "epoch_date_close_approach": -363709440000,
            "relative_velocity": {
                "kilometers_per_second": "18.8035990744",
                "kilometers_per_hour": "67692.9566678288",
                "miles_per_hour": "42061.7707695184"
            },
            "miss_distance": {
                "astronomical": "0.4592776752",
                "lunar": "178.6590156528",
                "kilometers": "68706961.948471824",
                "miles": "42692526.4760222112"
            },
            "orbiting_body": "Earth"
        },
        {
            "close_approach_date": "2020-07-19",
            "close_approach_date_full": "2020-Jul-19 12:15",
            "epoch_date_close_approach": 1595160900000,
            "relative_velocity": {
                "kilometers_per_second": "8.9429916743",
                "kilometers_per_hour": "32194.7700275897",
                "miles_per_hour": "20004.5780763098"
            },
            "miss_distance": {
                "astronomical": "0.08005498",
                "lunar": "31.14138722",
                "kilometers": "11976054.4908926",
                "miles": "7441575.19021388"
            },
            "orbiting_body": "Earth"
        }
    ],
    "orbital_data": {
        "orbit_id": "3",
        "orbit_determination_date": "2020-07-24 06:46:58",
        "first_observation_date": "2020-07-19",
        "last_observation_date": "2020-07-24",
        "data_arc_in_days": 5,
        "observations_used": 37,
        "orbit_uncertainty": "8",
        "minimum_orbit_intersection": ".024145",
        "jupiter_tisserand_invariant": "4.543",
        "epoch_osculation": "2459050.5",
        "eccentricity": ".3080099923035499",
        "semi_major_axis": "1.46558746168721",
        "inclination": "10.56956514378744",
        "ascending_node_longitude": "302.3573234400841",
        "orbital_period": "648.0612262127504",
        "perihelion_distance": "1.014171878892753",
        "perihelion_argument": "28.29300388008775",
        "aphelion_distance": "1.917003044481667",
        "perihelion_time": "2459077.352431322044",
        "mean_anomaly": "345.083391993024",
        "mean_motion": ".5555030689057402",
        "equinox": "J2000",
        "orbit_class": {
            "orbit_class_type": "APO",
            "orbit_class_description": "Near-Earth asteroid orbits which cross the Earth’s orbit similar to that of 1862 Apollo",
            "orbit_class_range": "a (semi-major axis) > 1.0 AU; q (perihelion) < 1.017 AU"
        }
    },
    "is_sentry_object": false
}